OPTICUBE 04             
1 41851U 16067D   24255.42384170  .00009753  00000+0  71175-3 0  9993
2 41851  98.0846  64.0688 0018190 126.2898 234.0010 15.03782677428193
AEROCUBE 8D             
1 41852U 16067E   24255.44426733  .00017956  00000+0  11111-2 0  9995
2 41852  98.1135  69.5060 0004873 172.2480 187.8824 15.09871460428408
AEROCUBE 8C             
1 41853U 16067F   24255.52620473  .00016078  00000+0  99531-3 0  9999
2 41853  98.0955  67.9599 0008131 107.5003 252.7114 15.09864989428402
PROMETHEUS 2-1          
1 41854U 16067G   24255.46000476  .00040660  00000+0  17868-2 0  9994
2 41854  98.1025  76.7986 0011330 122.1025 238.1310 15.21731718428832
PROMETHEUS 2-3          
1 41855U 16067H   24255.45868607  .00040514  00000+0  17850-2 0  9991
2 41855  98.0957  76.2020 0009690 132.1907 228.0151 15.21659562428833
CORVUS BC2              
1 42846U 17042X   24255.48030835  .00008517  00000+0  70876-3 0  9998
2 42846  97.3775  75.8489 0008533 120.6893 239.5172 14.98877529390363
CORVUS BC1              
1 42847U 17042Y   24255.76619716  .00009728  00000+0  80557-3 0  9993
2 42847  97.3747  76.5321 0008334 125.3829 234.8174 14.99030384390424
MIRATA                  
1 43015U 17073C   24255.74235068  .00049479  00000+0  20424-2 0  9990
2 43015  97.5804 139.7237 0152451 324.8634  34.2615 15.13806869369396
MAKERSAT 0              
1 43016U 17073D   24255.63080942  .00031469  00000+0  16738-2 0  9991
2 43016  97.5590 132.3185 0183543 350.2438   9.5240 15.01787802368863
GOMX-4B                 
1 43196U 18015E   24255.77798656  .00336187  00000+0  11968-2 0  9995
2 43196  97.5999  77.2306 0006066 312.0471  48.0283 15.88085833369130
SIRION PATHFINDER-2     
1 43759U 18099B   24255.75034888  .00012126  00000+0  87237-3 0  9997
2 43759  97.5217 309.5004 0010406   2.9666 357.1620 15.04330122315512
CORVUS BC4              
1 43767U 18099K   24255.69365989  .00011528  00000+0  84873-3 0  9996
2 43767  97.5043 306.3832 0010721  54.4627 305.7597 15.03466764315389
MOVE-II                 
1 43780U 18099Y   24255.75951323  .00056503  00000+0  24733-2 0  9991
2 43780  97.5115 318.2120 0005404  47.6878 312.4814 15.21817649316065
SPACEBEE-7              
1 43816U 18099BL  24255.75982489  .00034343  00000+0  18027-2 0  9995
2 43816  97.5394 318.5768 0008214 354.2631   5.8506 15.15616215315509
SPACEBEE-6              
1 43818U 18099BN  24255.68918792  .00092738  00000+0  28216-2 0  9998
2 43818  97.5307 325.6413 0005791 330.2141  29.8771 15.33636383316114
SHIELDS 1               
1 43850U 18104B   24255.90767459  .00032739  00000+0  77834-3 0  9994
2 43850  85.0210 224.0960 0013934 103.9567 256.3236 15.41401598319505
SONATE                  
1 44400U 19038Q   24255.81516261  .00050368  00000+0  12583-2 0  9993
2 44400  97.7163 254.1160 0016660 147.9023 212.3240 15.39848408287383
LUCKY-7                 
1 44406U 19038W   24255.73537813  .00114618  00000+0  16210-2 0  9996
2 44406  97.7027 259.7075 0014604 130.5549 229.6979 15.56008903287760
DUCHIFAT-3              
1 44854U 19089C   24255.67158388  .00036396  00000+0  16099-2 0  9999
2 44854  36.9543 242.4417 0005423 136.6141 223.5035 15.20796853261428
M2 PATHFINDER           
1 45727U 20037E   24255.44410850  .00009966  00000+0  84268-3 0  9991
2 45727  97.7823  71.5043 0010861 186.6364 173.4716 14.98216971228855
NETSAT-4                
1 46504U 20068U   24255.38515513  .00023109  00000+0  11397-2 0  9991
2 46504  97.8126 215.0358 0012012  73.8239 286.4314 15.17866083217234
NETSAT-3                
1 46505U 20068V   24255.86532702  .00025450  00000+0  12741-2 0  9999
2 46505  97.8103 214.9273 0011585  79.7491 280.5047 15.17324241217292
NETSAT-1                
1 46506U 20068W   24255.88936295  .00019315  00000+0  10303-2 0  9992
2 46506  97.8130 214.1975 0010511  87.5736 272.6699 15.15159009217247
NETSAT-2                
1 46507U 20068X   24255.33915699  .00022349  00000+0  11033-2 0  9990
2 46507  97.8112 214.5943 0009874  93.2028 267.0335 15.17859514217172
WILDTRACKCUBE-SIMBA     
1 47941U 21022K   24255.89554495  .00033054  00000+0  13072-2 0  9998
2 47941  97.4466 152.0355 0013798 188.3770 171.7240 15.25312535191663
GRBALPHA                
1 47959U 21022AD  24255.91235148  .00051019  00000+0  16574-2 0  9992
2 47959  97.4464 154.5756 0012821 174.4658 185.6728 15.31674723190659
BCCSAT-1                
1 48041U 21022AK  24255.73316393  .00998078  43783-3  29508-2 0  9992
2 48041  97.4348 167.4509 0013505 136.8359 223.3977 15.92486177191447
BEESAT-8                
1 48085U 21022AP  24255.67389153  .00064971  00000+0  15866-2 0  9996
2 48085  97.4676 159.0346 0011959 156.0520 204.1285 15.40542429191153
LEDSAT                  
1 49069U 21073D   24255.76353887  .00037215  00000+0  12917-2 0  9995
2 49069  97.4289 326.5271 0016464 339.1764  20.8803 15.29556161169669
ROBUSTA-1F (MTCUBE 2)   
1 53109U 22080E   24255.16133339 -.00000003  00000+0  00000+0 0  9999
2 53109  70.1287 162.2342 0008232  69.2034 290.9507  6.42583999 50680
SITRO-AIS 5 (KATYS)     
1 57176U 23091L   24255.93327984  .00020000  00000+0  12029-2 0  9991
2 57176  97.6043 307.4511 0017343 180.1426 179.9801 15.10755569 66582
SITRO-AIS 6 (CHIRKIN)   
1 57192U 23091AC  24255.91529134  .00019605  00000+0  11781-2 0  9991
2 57192  97.6035 307.4627 0017151 180.5743 179.5470 15.10795230 66589
SITRO-AIS 8 (ANOKHIN)   
1 57193U 23091AD  24255.92723370  .00022519  00000+0  13342-2 0  9994
2 57193  97.6036 307.5909 0016931 180.8242 179.2963 15.11281813 66590
SITRO-AIS 7 (FARTUSHNIY)
1 57194U 23091AE  24255.92331212  .00019314  00000+0  11628-2 0  9999
2 57194  97.6036 307.4444 0017042 180.8052 179.3153 15.10732488 66586
SITRO-AIS 10 (BURDAEV)  
1 57199U 23091AK  24255.92137442  .00023903  00000+0  13402-2 0  9994
2 57199  97.6048 308.7551 0012500 167.8821 192.2713 15.13311222 66667
SITRO-AIS 9 (SHCHUKIN)  
1 57201U 23091AM  24255.92095823  .00024139  00000+0  13546-2 0  9995
2 57201  97.6044 308.7270 0012455 167.6997 192.4540 15.13278600 66668
SITRO-AIS 12 (SMIRENNIY)
1 57204U 23091AQ  24255.93849898  .00024482  00000+0  13660-2 0  9996
2 57204  97.6057 308.9109 0012554 161.5583 198.6106 15.13479875 66676
SITRO-AIS 11 (SHEFFER)  
1 57208U 23091AU  24255.91865065  .00024947  00000+0  13872-2 0  9993
2 57208  97.6050 308.9243 0012325 162.6526 197.5128 15.13600021 66678
ROBUSTA-1E (ENSO)       
1 58470U 23185J   24255.93667588  .00040885  00000+0  14988-2 0  9999
2 58470  97.4174 321.9431 0010445 335.3042  24.7696 15.27820593 43367
SITRO-AIS 29            
1 59052U 24039B   24255.92247934  .00059283  00000+0  17728-2 0  9990
2 59052  97.3978 217.5787 0011215 262.3745  97.6224 15.34295135 29865
SITRO-AIS 30            
1 59053U 24039C   24255.92797577  .00058368  00000+0  17572-2 0  9994
2 59053  97.3979 217.5658 0011500 263.8850  96.1082 15.34083671 29859
SITRO-AIS 31            
1 59054U 24039D   24255.45529991  .00053131  00000+0  15923-2 0  9997
2 59054  97.3978 217.1312 0011274 266.3425  93.6528 15.34255474 29800
SITRO-AIS 33            
1 59055U 24039E   24255.89648614  .00060343  00000+0  17976-2 0  9993
2 59055  97.3983 217.6174 0010922 264.7802  95.2194 15.34414482 29867
SITRO-AIS 35            
1 59056U 24039F   24255.89173249  .00057987  00000+0  17269-2 0  9996
2 59056  97.3983 217.6197 0010684 264.6912  95.3112 15.34437806 29865
SITRO-AIS 32            
1 59057U 24039G   24255.90587393  .00053523  00000+0  16036-2 0  9991
2 59057  97.3983 217.6036 0010946 265.1887  94.8106 15.34266433 29869
SITRO-AIS 34            
1 59058U 24039H   24255.89734368  .00059471  00000+0  17700-2 0  9993
2 59058  97.3983 217.6179 0010778 264.6772  95.3242 15.34449460 29868
SITRO-AIS 36            
1 59059U 24039J   24255.88278071  .00059075  00000+0  17519-2 0  9995
2 59059  97.3981 217.6324 0010585 264.3263  95.6773 15.34567060 29866
SITRO-AIS 49            
1 59060U 24039K   24255.88694341  .00055337  00000+0  16489-2 0  9991
2 59060  97.3983 217.6270 0010662 263.8806  96.1223 15.34433537 29860
SITRO-AIS 50            
1 59061U 24039L   24255.93263510  .00060368  00000+0  17816-2 0  9993
2 59061  97.3979 217.7169 0010508 263.4130  96.5917 15.34714653 29875
SITRO-AIS 51            
1 59062U 24039M   24255.93219514  .00059487  00000+0  17545-2 0  9998
2 59062  97.3979 217.7165 0010472 263.5768  96.4283 15.34738934 29873
SITRO-AIS 52            
1 59063U 24039N   24255.92016687  .00062794  00000+0  18436-2 0  9999
2 59063  97.3981 217.7353 0010330 263.9402  96.0664 15.34868462 29877
SITRO-AIS 25            
1 59066U 24039R   24255.88928842  .00015728  00000+0  14507-2 0  9992
2 59066  95.3955 156.1140 0169950  45.2468 316.2439 14.84268414 28966
SITRO-AIS 26            
1 59067U 24039S   24255.89130537  .00015167  00000+0  14021-2 0  9998
2 59067  95.3955 156.1113 0169963  45.2830 316.2085 14.84188927 28961
SITRO-AIS 27            
1 59068U 24039T   24255.80410155  .00015916  00000+0  14650-2 0  9997
2 59068  95.3956 156.0887 0169488  45.3391 316.1501 14.84397359 28957
SITRO-AIS 28            
1 59071U 24039U   24255.93385270  .00016079  00000+0  14787-2 0  9996
2 59071  95.3956 156.1868 0169263  44.8549 316.6209 14.84453615 28971
GRBBETA                 
1 60237U 24128C   24255.70890515  .00008729  00000+0  75251-3 0  9996
2 60237  61.9947 300.7950 0016830 334.5225  25.5032 14.97823408  9554
OOV-CUBE (TUBSAT-30)    
1 60240U 24128F   24255.53608582  .00006842  00000+0  60648-3 0  9990
2 60240  61.9986 301.6457 0014825 324.9312  35.0799 14.97006505  9530
ROBUSTA-3A (MEDITERRAN*)
1 60243U 24128J   24255.48370511  .00012913  00000+0  11247-2 0  9991
2 60243  61.9919 301.8900 0016358 314.0072  45.9667 14.97118248  9521
